BEESAT-4                
1 41619U 16040W   21058.89985219  .00001987  00000-0  82426-4 0  9990
2 41619  97.2853 118.0102 0010759   8.2551 351.8862 15.24975401248312
CAS-2T & KS-1Q          
1 41847U 16066G   21058.89853852  .00000146  00000-0  32321-4 0  9993
2 41847  98.6175 117.4982 0365418 187.1779 172.4093 14.38151281226135
NAYIF-1 (EO-88)         
1 42017U 17008BX  21058.73146003  .00002626  00000-0  10004-3 0  9994
2 42017  97.3289 128.2721 0007436 129.4221 230.7677 15.27572505224502
ZHUHAI-1 02 (CAS-4B)    
1 42759U 17034B   21059.16121671  .00000505  00000-0  43817-4 0  9991
2 42759  43.0175  61.8787 0009425 208.7919 239.8230 15.10087863204622
ZHUHAI-1 01 (CAS-4A)    
1 42761U 17034D   21059.22847451  .00000568  00000-0  47526-4 0  9992
2 42761  43.0177  60.6395 0010187 209.3603 261.8716 15.10169653204636
MAX VALIER SAT          
1 42778U 17036P   21058.87577159  .00001372  00000-0  60718-4 0  9999
2 42778  97.2711 111.0104 0011596 194.8227 165.2672 15.23249472204600
RADFXSAT (FOX-1B)       
1 43017U 17073E   21058.69865017  .00001117  00000-0  92250-4 0  9993
2 43017  97.7152 327.0043 0254415 298.5950  58.9878 14.79349742176892
FOX-1D (AO-92)          
1 43137U 18004AC  21058.75933089  .00001757  00000-0  73609-4 0  9990
2 43137  97.4174 133.8889 0007638 230.4355 129.6209 15.24851994173949
DIWATA-2B               
1 43678U 18084H   21059.18461411  .00000527  00000-0  58025-4 0  9990
2 43678  97.9070 184.0160 0011245  57.2055 303.0233 14.91715943127142
ES'HAIL 2               
1 43700U 18090A   21058.81539059  .00000137  00000-0  00000-0 0  9999
2 43700   0.0251 153.0516 0002390 223.7183 100.4216  1.00269101  8276
FOX-1CLIFF (AO-95)      
1 43770U 18099N   21058.70267390  .00000145  00000-0  18305-4 0  9999
2 43770  97.6771 131.2618 0015887  67.3856 292.9043 14.95210391122050
ITASAT 1                
1 43786U 18099AE  21058.77778906 -.00000049  00000-0  78480-6 0  9999
2 43786  97.6786 131.9370 0016380  60.7141 299.5715 14.95518857122099
JY1SAT (JO-97)          
1 43803U 18099AX  21059.16027087  .00000505  00000-0  50380-4 0  9993
2 43803  97.6750 132.0784 0016446  59.9529 300.3321 14.95743672122150
UWE-4                   
1 43880U 18111E   21058.74918139  .00000822  00000-0  76841-4 0  9995
2 43880  97.6935 328.3223 0013684 109.6220 250.6480 14.96737668118674
PSAT2 (NO-104)          
1 44354U 19036R   21058.53733088  .00019587  00000-0  26976-3 0  9995
2 44354  28.5289 138.1718 0339365 166.9557 194.0069 15.09895529 92310
BRICSAT2 (NO-103)       
1 44355U 19036S   21058.81421521  .00037275  00000-0  45121-3 0  9990
2 44355  28.5284 106.9849 0293193 217.7026 140.2684 15.21815551 92663
JAISAT-1                
1 44419U 19038F   21059.16149804  .00001432  00000-0  83562-4 0  9991
2 44419  97.5753  24.3843 0020435 333.5453  26.4733 15.13424587 91267
DUCHIFAT-3              
1 44854U 19089C   21059.04987369  .00000849  00000-0  74472-4 0  9994
2 44854  36.9680  27.5554 0009126 328.4504  31.5691 14.99348097 66675
RS-44 & BREEZE-KM R/B   
1 44909U 19096E   21058.78077334  .00000009  00000-0 -53876-5 0  9990
2 44909  82.5244 185.6702 0217083 349.8212   9.8527 12.79708560 54816
ORBITAL FACTORY 2 (OF-2)
1 45113U 19071C   21059.12156387  .00002572  00000-0  85921-4 0  9997
2 45113  51.6417 207.2890 0011802 257.6168 102.3494 15.34887466 60376
HUSKYSAT-1              
1 45119U 19071J   21058.81159575  .00004145  00000-0  13119-3 0  9997
2 45119  51.6412 208.2178 0011219 252.6838 107.2917 15.34983003 60321
BY70-2                  
1 45857U 20042B   21059.22647943  .00001523  00000-0  22472-3 0  9992
2 45857  97.9920 136.1031 0011248 197.0145 163.0702 14.76722649 35426
SALSAT                  
1 46495U 20068K   21058.90845068  .00001053  00000-0  81834-4 0  9997
2 46495  97.6837 357.1180 0017738  80.2561 280.0668 15.03351699 22874
BY70-3                  
1 46839U 20079N   21059.20039819  .00004252  00000-0  13617-3 0  9991
2 46839  97.2522 135.2325 0006096 226.8983 217.7939 15.32904905 17463
RADFXSAT-2 (AO-109)     
1 47311U 21002C   21059.07155522  .00001028  00000-0  57480-4 0  9994
2 47311  60.6871 340.5472 0018361 331.1639  28.8431 15.21288427  6233
